NORAD_CAT_ID,OBJECT_NAME,OBJECT_TYPE,EPOCH,MEAN_MOTION,ECCENTRICITY,INCLINATION,RA_OF_ASC_NODE,ARG_OF_PERICENTER,MEAN_ANOMALY,BSTAR,MEAN_MOTION_DOT,MEAN_MOTION_DDOT,TLE_LINE0,TLE_LINE1,TLE_LINE2,SEMIMAJOR_AXIS,PERIOD,APOGEE,PERIGEE,DECAYED
51780.0,STARLINK-3617,PAYLOAD,2023-08-16 05:03:26,15.08837218,0.0001229,53.2161,223.1673,86.7609,273.3523,1.2727e-05,-8.5e-07,0.0,0 STARLINK-3617,1 51780U 22017N   23228.21071787 -.00000085  00000-0  12727-4 0  9990,2 51780  53.2161 223.1673 0001229  86.7609 273.3523 15.08837218 82733,6917.889,95.438,540.604,538.904,0.0
51780.0,STARLINK-3617,PAYLOAD,2023-08-17 16:01:54,15.0883963,0.0001234,53.2163,216.6259,90.3249,269.7885,1.7837e-05,-4e-08,0.0,0 STARLINK-3617,1 51780U 22017N   23229.66799717 -.00000004  00000-0  17837-4 0  9998,2 51780  53.2163 216.6259 0001234  90.3249 269.7885 15.08839630 82953,6917.882,95.438,540.6,538.893,0.0
51780.0,STARLINK-3617,PAYLOAD,2023-08-19 04:35:47,15.08836723,0.0001324,53.2163,209.7858,102.9178,257.1962,1.8269e-05,3e-08,0.0,0 STARLINK-3617,1 51780U 22017N   23231.19152280  .00000003  00000-0  18269-4 0  9995,2 51780  53.2163 209.7858 0001324 102.9178 257.1962 15.08836723 83185,6917.89,95.438,540.671,538.839,0.0
51780.0,STARLINK-3617,PAYLOAD,2023-08-19 10:57:19,15.08842618,0.0001287,53.2162,208.5963,97.0591,263.0547,6.975e-05,8.22e-06,0.0,0 STARLINK-3617,1 51780U 22017N   23231.45647812  .00000822  00000-0  69750-4 0  9994,2 51780  53.2162 208.5963 0001287  97.0591 263.0547 15.08842618 83229,6917.872,95.437,540.628,538.847,0.0
51780.0,STARLINK-3617,PAYLOAD,2023-08-20 02:51:11,15.08836253,0.0001357,53.2164,205.6234,93.782,266.3327,6.0517e-05,6.75e-06,0.0,0 STARLINK-3617,1 51780U 22017N   23232.11888450  .00000675  00000-0  60517-4 0  9991,2 51780  53.2164 205.6234 0001357  93.7820 266.3327 15.08836253 83327,6917.892,95.438,540.696,538.818,0.0
51780.0,STARLINK-3617,PAYLOAD,2023-08-20 10:48:06,15.08844956,0.000132,53.2162,204.136,92.3337,267.7807,8.6308e-05,1.086e-05,0.0,0 STARLINK-3617,1 51780U 22017N   23232.45007807  .00001086  00000-0  86308-4 0  9990,2 51780  53.2162 204.1360 0001320  92.3337 267.7807 15.08844956 83379,6917.865,95.437,540.643,538.817,0.0
51780.0,STARLINK-3617,PAYLOAD,2023-08-22 04:08:08,15.08844427,0.0001513,53.2173,196.4046,89.1994,270.9172,5.1876e-05,5.38e-06,0.0,0 STARLINK-3617,1 51780U 22017N   23234.17232138  .00000538  00000-0  51876-4 0  9991,2 51780  53.2173 196.4046 0001513  89.1994 270.9172 15.08844427 83635,6917.867,95.437,540.779,538.685,0.0
51780.0,STARLINK-3617,PAYLOAD,2023-08-23 02:23:32,15.08840326,0.0001577,53.2174,192.2426,105.8653,254.2513,1.7139e-05,-1.5e-07,0.0,0 STARLINK-3617,1 51780U 22017N   23235.09968378 -.00000015  00000-0  17139-4 0  9990,2 51780  53.2174 192.2426 0001577 105.8653 254.2513 15.08840326 83773,6917.879,95.438,540.835,538.653,0.0
51780.0,STARLINK-3617,PAYLOAD,2023-08-24 07:00:28,15.08845828,0.0001494,53.2173,186.8895,111.0985,249.0167,1.0424e-05,-1.22e-06,0.0,0 STARLINK-3617,1 51780U 22017N   23236.29200094 -.00000122  00000-0  10424-4 0  9996,2 51780  53.2173 186.8895 0001494 111.0985 249.0167 15.08845828 82268,6917.863,95.437,540.761,538.694,0.0
51780.0,STARLINK-3617,PAYLOAD,2023-08-25 00:29:44,15.08836512,0.0001473,53.2164,183.6174,112.6063,247.5085,2.977e-05,1.86e-06,0.0,0 STARLINK-3617,1 51780U 22017N   23237.02064871  .00000186  00000-0  29770-4 0  9992,2 51780  53.2164 183.6174 0001473 112.6063 247.5085 15.08836512 84066,6917.891,95.438,540.775,538.737,0.0
51780.0,STARLINK-3617,PAYLOAD,2023-08-25 06:51:16,15.0884072,0.0001262,53.2173,182.4302,96.869,263.2446,7.3635e-05,8.84e-06,0.0,0 STARLINK-3617,1 51780U 22017N   23237.28560554  .00000884  00000-0  73635-4 0  9993,2 51780  53.2173 182.4302 0001262  96.8690 263.2446 15.08840720 82410,6917.878,95.438,540.616,538.87,0.0
51780.0,STARLINK-3617,PAYLOAD,2023-08-25 21:09:45,15.08834295,0.0001239,53.2177,179.7547,99.137,260.9763,1.2931e-05,-8.2e-07,0.0,0 STARLINK-3617,1 51780U 22017N   23237.88177357 -.00000082  00000-0  12931-4 0  9997,2 51780  53.2177 179.7547 0001239  99.1370 260.9763 15.08834295 82505,6917.898,95.438,540.62,538.906,0.0
51780.0,STARLINK-3617,PAYLOAD,2023-08-26 01:55:54,15.08839114,0.0001299,53.2174,178.8579,90.1979,269.9162,3.8466e-05,3.24e-06,0.0,0 STARLINK-3617,1 51780U 22017N   23238.08049016  .00000324  00000-0  38466-4 0  9999,2 51780  53.2174 178.8579 0001299  90.1979 269.9162 15.08839114 84227,6917.883,95.438,540.647,538.849,0.0
51780.0,STARLINK-3617,PAYLOAD,2023-08-27 06:32:50,15.0884078,0.0001311,53.217,173.508,94.4653,265.6489,0.00021391,3.118e-05,0.0,0 STARLINK-3617,1 51780U 22017N   23239.27280609  .00003118  00000-0  21391-3 0  9998,2 51780  53.2170 173.5080 0001311  94.4653 265.6489 15.08840780 84409,6917.878,95.438,540.65,538.836,0.0
51780.0,STARLINK-3617,PAYLOAD,2023-08-28 01:37:28,15.08842182,0.0001446,53.2173,169.9407,83.3625,276.7531,5.6377e-05,6.09e-06,0.0,0 STARLINK-3617,1 51780U 22017N   23240.06769011  .00000609  00000-0  56377-4 0  9991,2 51780  53.2173 169.9407 0001446  83.3625 276.7531 15.08842182 84521,6917.874,95.437,540.739,538.738,0.0
51780.0,STARLINK-3617,PAYLOAD,2023-08-28 04:48:14,15.08847676,0.0001454,53.2175,169.3456,87.3712,272.7447,0.00011005,1.464e-05,0.0,0 STARLINK-3617,1 51780U 22017N   23240.20016488  .00001464  00000-0  11005-3 0  9998,2 51780  53.2175 169.3456 0001454  87.3712 272.7447 15.08847676 84548,6917.857,95.437,540.728,538.716,0.0
51780.0,STARLINK-3617,PAYLOAD,2023-08-28 19:06:43,15.08840092,0.000136,53.2171,166.6691,85.5766,274.5381,-2.6304e-05,-7.07e-06,0.0,0 STARLINK-3617,1 51780U 22017N   23240.79633380 -.00000707  00000-0 -26304-4 0  9998,2 51780  53.2171 166.6691 0001360  85.5766 274.5381 15.08840092 84632,6917.88,95.438,540.686,538.804,0.0
51780.0,STARLINK-3617,PAYLOAD,2023-08-29 01:28:15,15.08845882,0.0001369,53.2168,165.4795,90.4681,269.6468,1.7989e-05,-2e-08,0.0,0 STARLINK-3617,1 51780U 22017N   23241.06128736 -.00000002  00000-0  17989-4 0  9999,2 51780  53.2168 165.4795 0001369  90.4681 269.6468 15.08845882 84677,6917.862,95.437,540.674,538.78,0.0
51780.0,STARLINK-3617,PAYLOAD,2023-08-29 22:08:16,15.08835466,0.000146,53.2171,161.6136,88.4292,271.6868,-2.355e-05,-6.63e-06,0.0,0 STARLINK-3617,1 51780U 22017N   23241.92241678 -.00000663  00000-0 -23550-4 0  9990,2 51780  53.2171 161.6136 0001460  88.4292 271.6868 15.08835466 83117,6917.894,95.438,540.769,538.749,0.0
51780.0,STARLINK-3617,PAYLOAD,2023-08-29 23:43:39,15.08838313,0.0001389,53.2171,161.3165,95.4353,264.6797,-3.2568e-05,-8.06e-06,0.0,0 STARLINK-3617,1 51780U 22017N   23241.98865522 -.00000806  00000-0 -32568-4 0  9994,2 51780  53.2171 161.3165 0001389  95.4353 264.6797 15.08838313 84817,6917.886,95.438,540.711,538.79,0.0
51780.0,STARLINK-3617,PAYLOAD,2023-08-30 04:29:49,15.088384,0.0001434,53.2169,160.4237,91.8352,268.2804,7.0365e-08,-2.87e-06,0.0,0 STARLINK-3617,1 51780U 22017N   23242.18737442 -.00000287  00000-0  70365-7 0  9998,2 51780  53.2169 160.4237 0001434  91.8352 268.2804 15.08838400 83156,6917.885,95.438,540.742,538.758,0.0
51780.0,STARLINK-3617,PAYLOAD,2023-08-31 01:09:49,15.08842467,0.0001428,53.217,156.5582,89.4201,270.6955,8.2309e-05,1.022e-05,0.0,0 STARLINK-3617,1 51780U 22017N   23243.04849040  .00001022  00000-0  82309-4 0  9997,2 51780  53.2170 156.5582 0001428  89.4201 270.6955 15.08842467 84979,6917.873,95.437,540.726,538.75,0.0
51780.0,STARLINK-3617,PAYLOAD,2023-09-01 01:00:37,15.08836174,9.76e-05,53.2149,152.0977,76.3301,283.7799,6.666e-05,7.73e-06,0.0,0 STARLINK-3617,1 51780U 22017N   23244.04209618  .00000773  00000-0  66660-4 0  9993,2 51780  53.2149 152.0977 0000976  76.3301 283.7799 15.08836174 85124,6917.892,95.438,540.432,539.082,0.0
51780.0,STARLINK-3617,PAYLOAD,2023-09-01 10:32:55,15.08841121,0.0001257,53.2167,150.3139,82.89,277.2235,5.5861e-05,6.01e-06,0.0,0 STARLINK-3617,1 51780U 22017N   23244.43953438  .00000601  00000-0  55861-4 0  9993,2 51780  53.2167 150.3139 0001257  82.8900 277.2235 15.08841121 83494,6917.877,95.437,540.612,538.872,0.0
51780.0,STARLINK-3617,PAYLOAD,2023-09-01 18:29:51,15.08846179,0.0001235,53.217,148.8277,84.3478,275.7655,-7.4359e-05,-1.471e-05,0.0,0 STARLINK-3617,1 51780U 22017N   23244.77073755 -.00001471  00000-0 -74359-4 0  9996,2 51780  53.2170 148.8277 0001235  84.3478 275.7655 15.08846179 83549,6917.862,95.437,540.581,538.872,0.0
51780.0,STARLINK-3617,PAYLOAD,2023-09-02 02:26:46,15.08846644,0.0001328,53.2172,147.3413,91.2953,268.8191,2.5998e-05,1.26e-06,0.0,0 STARLINK-3617,1 51780U 22017N   23245.10193210  .00000126  00000-0  25998-4 0  9992,2 51780  53.2172 147.3413 0001328  91.2953 268.8191 15.08846644 85283,6917.86,95.437,540.644,538.806,0.0
51780.0,STARLINK-3617,PAYLOAD,2023-09-02 10:23:42,15.0884213,0.0001424,53.2173,145.8546,91.8752,268.2403,-1.8051e-05,-5.75e-06,0.0,0 STARLINK-3617,1 51780U 22017N   23245.43313578 -.00000575  00000-0 -18051-4 0  9991,2 51780  53.2173 145.8546 0001424  91.8752 268.2403 15.08842130 83648,6917.874,95.437,540.724,538.754,0.0
51780.0,STARLINK-3617,PAYLOAD,2023-09-03 02:17:34,15.08844823,0.0001267,53.2174,142.8806,96.502,263.6117,3.5541e-05,2.78e-06,0.0,0 STARLINK-3617,1 51780U 22017N   23246.09553404  .00000278  00000-0  35541-4 0  9999,2 51780  53.2174 142.8806 0001267  96.5020 263.6117 15.08844823 83743,6917.866,95.437,540.607,538.854,0.0
51780.0,STARLINK-3617,PAYLOAD,2023-09-04 02:08:21,15.08838817,0.0001361,53.218,138.4198,95.2468,264.868,4.0734e-05,3.6e-06,0.0,0 STARLINK-3617,1 51780U 22017N   23247.08914094  .00000360  00000-0  40734-4 0  9997,2 51780  53.2180 138.4198 0001361  95.2468 264.8680 15.08838817 85580,6917.884,95.438,540.691,538.807,0.0
51780.0,STARLINK-3617,PAYLOAD,2023-09-04 10:05:17,15.08832776,0.0001274,53.2177,136.9319,89.7219,270.3919,5.1099e-05,5.25e-06,0.0,0 STARLINK-3617,1 51780U 22017N   23247.42034525  .00000525  00000-0  51099-4 0  9996,2 51780  53.2177 136.9319 0001274  89.7219 270.3919 15.08832776 83942,6917.902,95.438,540.649,538.886,0.0
